start=new Date('2022-04-01T00:00:00.000Z').valueOf();
sats=[{"ECCENTRICITY":"0.00030810","EPHEMERIS_TYPE":"0","PERIAPSIS":"574.940","BSTAR":"0.00125060000000","COUNTRY_CODE":"US","SEMIMAJOR_AXIS":"6955.218","INCLINATION":"69.9982","ARG_OF_PERICENTER":"267.1558","NORAD_CAT_ID":"49166","OBJECT_ID":"2021-082AN","ELEMENT_SET_NO":"999","RA_OF_ASC_NODE":"302.0020","FILE":"3381849","MEAN_ANOMALY":"341.8044","SITE":"AFWTR","MEAN_MOTION_DDOT":"0.0000000000000","RCS_SIZE":"LARGE","EPOCH":"2022-03-31T14:00:01.000224","REV_AT_EPOCH":"354","MEAN_MOTION":"14.96706447","TLE_LINE2":"2 49166  69.9982 302.0020 0003081 267.1558 341.8044 14.96706447  3548","REF_FRAME":"TEME","MEAN_MOTION_DOT":"0.00014248","TIME_SYSTEM":"UTC","OBJECT_NAME":"STARLINK-3089","GP_ID":"200147072","APOAPSIS":"579.226","OBJECT_TYPE":"PAYLOAD","CLASSIFICATION_TYPE":"U","CENTER_NAME":"EARTH","PERIOD":"96.211","MEAN_ELEMENT_THEORY":"SGP4","LAUNCH_DATE":"2021-09-14","DECAY_DATE":null,"TLE_LINE1":"1 49166U 21082AN  22090.58334491  .00014248  00000-0  12506-2 0  9994"},{"REV_AT_EPOCH":"3167","RCS_SIZE":"LARGE","EPOCH":"2022-03-31T22:00:00.999936","MEAN_MOTION_DDOT":"0.0000000000000","SITE":"AFWTR","MEAN_ANOMALY":"63.6875","ELEMENT_SET_NO":"999","OBJECT_ID":"2021-082AP","RA_OF_ASC_NODE":"322.1035","FILE":"3382008","ARG_OF_PERICENTER":"276.5702","NORAD_CAT_ID":"49167","INCLINATION":"70.0018","COUNTRY_CODE":"US","SEMIMAJOR_AXIS":"6950.123","ECCENTRICITY":"0.00032210","BSTAR":"-0.00001915100000","PERIAPSIS":"569.750","EPHEMERIS_TYPE":"0","DECAY_DATE":null,"TLE_LINE1":"1 49167U 21082AP  22090.91667824 -.00000322  00000-0 -19151-4 0  9996","PERIOD":"96.106","LAUNCH_DATE":"2021-09-14","MEAN_ELEMENT_THEORY":"SGP4","CENTER_NAME":"EARTH","APOAPSIS":"574.227","CLASSIFICATION_TYPE":"U","OBJECT_TYPE":"PAYLOAD","OBJECT_NAME":"STARLINK-3054","GP_ID":"200152504","MEAN_MOTION_DOT":"-0.00000322","TIME_SYSTEM":"UTC","REF_FRAME":"TEME","TLE_LINE2":"2 49167  70.0018 322.1035 0003221 276.5702  63.6875 14.98352472 31675","MEAN_MOTION":"14.98352472"},{"RCS_SIZE":"LARGE","MEAN_MOTION_DDOT":"0.0000000000000","EPOCH":"2022-03-31T14:00:01.000224","REV_AT_EPOCH":"357","SITE":"AFWTR","MEAN_ANOMALY":"61.9643","NORAD_CAT_ID":"49168","ARG_OF_PERICENTER":"265.6913","FILE":"3381849","RA_OF_ASC_NODE":"302.0024","ELEMENT_SET_NO":"999","OBJECT_ID":"2021-082AQ","BSTAR":"0.00165930000000","EPHEMERIS_TYPE":"0","PERIAPSIS":"574.908","ECCENTRICITY":"0.00030960","INCLINATION":"70.0004","SEMIMAJOR_AXIS":"6955.196","COUNTRY_CODE":"US","TLE_LINE1":"1 49168U 21082AQ  22090.58334491  .00018951  00000-0  16593-2 0  9991","DECAY_DATE":null,"CENTER_NAME":"EARTH","LAUNCH_DATE":"2021-09-14","MEAN_ELEMENT_THEORY":"SGP4","PERIOD":"96.211","GP_ID":"200148074","OBJECT_NAME":"STARLINK-3101","CLASSIFICATION_TYPE":"U","OBJECT_TYPE":"PAYLOAD","APOAPSIS":"579.214","MEAN_MOTION":"14.96713645","MEAN_MOTION_DOT":"0.00018951","REF_FRAME":"TEME","TIME_SYSTEM":"UTC","TLE_LINE2":"2 49168  70.0004 302.0024 0003096 265.6913  61.9643 14.96713645  3572"},{"MEAN_MOTION":"14.96716263","TIME_SYSTEM":"UTC","MEAN_MOTION_DOT":"0.00015971","REF_FRAME":"TEME","TLE_LINE2":"2 49169  69.9986 302.0008 0003148 267.9629  33.4073 14.96716263  3624","GP_ID":"200148310","OBJECT_NAME":"STARLINK-3046","CLASSIFICATION_TYPE":"U","OBJECT_TYPE":"PAYLOAD","APOAPSIS":"579.242","CENTER_NAME":"EARTH","LAUNCH_DATE":"2021-09-14","MEAN_ELEMENT_THEORY":"SGP4","PERIOD":"96.211","TLE_LINE1":"1 49169U 21082AR  22090.58334491  .00015971  00000-0  14001-2 0  9993","DECAY_DATE":null,"BSTAR":"0.00140010000000","EPHEMERIS_TYPE":"0","PERIAPSIS":"574.863","ECCENTRICITY":"0.00031480","INCLINATION":"69.9986","COUNTRY_CODE":"US","SEMIMAJOR_AXIS":"6955.188","NORAD_CAT_ID":"49169","ARG_OF_PERICENTER":"267.9629","FILE":"3381849","RA_OF_ASC_NODE":"302.0008","ELEMENT_SET_NO":"999","OBJECT_ID":"2021-082AR","SITE":"AFWTR","MEAN_ANOMALY":"33.4073","MEAN_MOTION_DDOT":"0.0000000000000","RCS_SIZE":"LARGE","EPOCH":"2022-03-31T14:00:01.000224","REV_AT_EPOCH":"362"},{"NORAD_CAT_ID":"49170","ARG_OF_PERICENTER":"282.5823","RA_OF_ASC_NODE":"322.1056","FILE":"3382088","ELEMENT_SET_NO":"999","OBJECT_ID":"2021-082AS","BSTAR":"0.00082473000000","PERIAPSIS":"569.999","EPHEMERIS_TYPE":"0","ECCENTRICITY":"0.00029330","INCLINATION":"70.0009","SEMIMAJOR_AXIS":"6950.172","COUNTRY_CODE":"US","MEAN_MOTION_DDOT":"0.0000000000000","RCS_SIZE":"LARGE","EPOCH":"2022-03-31T22:00:00.999936","REV_AT_EPOCH":"3046","SITE":"AFWTR","MEAN_ANOMALY":"197.3353","GP_ID":"200154461","OBJECT_NAME":"STARLINK-3074","CLASSIFICATION_TYPE":"U","OBJECT_TYPE":"PAYLOAD","APOAPSIS":"574.076","MEAN_MOTION":"14.98336698","MEAN_MOTION_DOT":"0.00009763","TIME_SYSTEM":"UTC","REF_FRAME":"TEME","TLE_LINE2":"2 49170  70.0009 322.1056 0002933 282.5823 197.3353 14.98336698 30466","TLE_LINE1":"1 49170U 21082AS  22090.91667824  .00009763  00000-0  82473-3 0  9992","DECAY_DATE":null,"CENTER_NAME":"EARTH","LAUNCH_DATE":"2021-09-14","MEAN_ELEMENT_THEORY":"SGP4","PERIOD":"96.107"},{"CENTER_NAME":"EARTH","LAUNCH_DATE":"2021-09-14","MEAN_ELEMENT_THEORY":"SGP4","PERIOD":"96.107","TLE_LINE1":"1 49171U 21082AT  22090.58334491  .00012005  00000-0  10122-2 0  9991","DECAY_DATE":null,"MEAN_MOTION":"14.98330182","MEAN_MOTION_DOT":"0.00012005","REF_FRAME":"TEME","TIME_SYSTEM":"UTC","TLE_LINE2":"2 49171  70.0013 322.9503 0003213 277.8074 101.7224 14.98330182  3585","GP_ID":"200147323","OBJECT_NAME":"STARLINK-3107","CLASSIFICATION_TYPE":"U","OBJECT_TYPE":"PAYLOAD","APOAPSIS":"574.290","SITE":"AFWTR","MEAN_ANOMALY":"101.7224","RCS_SIZE":"LARGE","MEAN_MOTION_DDOT":"0.0000000000000","EPOCH":"2022-03-31T14:00:01.000224","REV_AT_EPOCH":"358","BSTAR":"0.00101220000000","PERIAPSIS":"569.824","EPHEMERIS_TYPE":"0","ECCENTRICITY":"0.00032130","INCLINATION":"70.0013","SEMIMAJOR_AXIS":"6950.192","COUNTRY_CODE":"US","NORAD_CAT_ID":"49171","ARG_OF_PERICENTER":"277.8074","FILE":"3381849","RA_OF_ASC_NODE":"322.9503","ELEMENT_SET_NO":"999","OBJECT_ID":"2021-082AT"},{"COUNTRY_CODE":"US","SEMIMAJOR_AXIS":"6955.219","INCLINATION":"69.9966","ECCENTRICITY":"0.00032610","PERIAPSIS":"574.816","EPHEMERIS_TYPE":"0","BSTAR":"0.00152320000000","OBJECT_ID":"2021-082AU","ELEMENT_SET_NO":"999","FILE":"3381849","RA_OF_ASC_NODE":"302.0218","ARG_OF_PERICENTER":"277.1962","NORAD_CAT_ID":"49172","MEAN_ANOMALY":"184.9190","SITE":"AFWTR","REV_AT_EPOCH":"355","RCS_SIZE":"LARGE","EPOCH":"2022-03-31T14:00:01.000224","MEAN_MOTION_DDOT":"0.0000000000000","TLE_LINE2":"2 49172  69.9966 302.0218 0003261 277.1962 184.9190 14.96706248  3554","MEAN_MOTION_DOT":"0.00017382","REF_FRAME":"TEME","TIME_SYSTEM":"UTC","MEAN_MOTION":"14.96706248","APOAPSIS":"579.352","OBJECT_TYPE":"PAYLOAD","CLASSIFICATION_TYPE":"U","OBJECT_NAME":"STARLINK-3091","GP_ID":"200148568","PERIOD":"96.211","MEAN_ELEMENT_THEORY":"SGP4","LAUNCH_DATE":"2021-09-14","CENTER_NAME":"EARTH","DECAY_DATE":null,"TLE_LINE1":"1 49172U 21082AU  22090.58334491  .00017382  00000-0  15232-2 0  9992"},{"SEMIMAJOR_AXIS":"6955.231","COUNTRY_CODE":"US","INCLINATION":"70.0000","ECCENTRICITY":"0.00031290","EPHEMERIS_TYPE":"0","PERIAPSIS":"574.920","BSTAR":"0.00171440000000","OBJECT_ID":"2021-082AV","ELEMENT_SET_NO":"999","RA_OF_ASC_NODE":"302.0073","FILE":"3381849","ARG_OF_PERICENTER":"273.6821","NORAD_CAT_ID":"49173","MEAN_ANOMALY":"74.0578","SITE":"AFWTR","REV_AT_EPOCH":"357","RCS_SIZE":"LARGE","EPOCH":"2022-03-31T14:00:01.000224","MEAN_MOTION_DDOT":"0.0000000000000","TLE_LINE2":"2 49173  70.0000 302.0073 0003129 273.6821  74.0578 14.96702242  3575","TIME_SYSTEM":"UTC","MEAN_MOTION_DOT":"0.00019579","REF_FRAME":"TEME","MEAN_MOTION":"14.96702242","APOAPSIS":"579.272","OBJECT_TYPE":"PAYLOAD","CLASSIFICATION_TYPE":"U","OBJECT_NAME":"STARLINK-3045","GP_ID":"200148804","PERIOD":"96.212","MEAN_ELEMENT_THEORY":"SGP4","LAUNCH_DATE":"2021-09-14","CENTER_NAME":"EARTH","DECAY_DATE":null,"TLE_LINE1":"1 49173U 21082AV  22090.58334491  .00019579  00000-0  17144-2 0  9997"},{"EPOCH":"2022-03-31T14:00:01.000224","RCS_SIZE":"LARGE","MEAN_MOTION_DDOT":"0.0000000000000","REV_AT_EPOCH":"363","MEAN_ANOMALY":"103.2248","SITE":"AFWTR","NORAD_CAT_ID":"49174","ARG_OF_PERICENTER":"261.8741","FILE":"3381849","RA_OF_ASC_NODE":"302.0004","OBJECT_ID":"2021-082AW","ELEMENT_SET_NO":"999","EPHEMERIS_TYPE":"0","PERIAPSIS":"575.040","BSTAR":"0.00167390000000","ECCENTRICITY":"0.00028920","COUNTRY_CODE":"US","SEMIMAJOR_AXIS":"6955.187","INCLINATION":"69.9999","TLE_LINE1":"1 49174U 21082AW  22090.58334491  .00019120  00000-0  16739-2 0  9999","DECAY_DATE":null,"CENTER_NAME":"EARTH","MEAN_ELEMENT_THEORY":"SGP4","LAUNCH_DATE":"2021-09-14","PERIOD":"96.211","GP_ID":"200147073","OBJECT_NAME":"STARLINK-3047","OBJECT_TYPE":"PAYLOAD","CLASSIFICATION_TYPE":"U","APOAPSIS":"579.063","MEAN_MOTION":"14.96716649","TLE_LINE2":"2 49174  69.9999 302.0004 0002892 261.8741 103.2248 14.96716649  3632","MEAN_MOTION_DOT":"0.00019120","REF_FRAME":"TEME","TIME_SYSTEM":"UTC"},{"MEAN_MOTION_DDOT":"0.0000000000000","RCS_SIZE":"LARGE","EPOCH":"2022-03-31T22:00:00.999936","REV_AT_EPOCH":"3097","SITE":"AFWTR","MEAN_ANOMALY":"280.1257","NORAD_CAT_ID":"49175","ARG_OF_PERICENTER":"282.6594","RA_OF_ASC_NODE":"301.1673","FILE":"3382156","ELEMENT_SET_NO":"999","OBJECT_ID":"2021-082AX","BSTAR":"0.00278450000000","PERIAPSIS":"574.937","EPHEMERIS_TYPE":"0","ECCENTRICITY":"0.00030550","INCLINATION":"69.9983","COUNTRY_CODE":"US","SEMIMAJOR_AXIS":"6955.197","TLE_LINE1":"1 49175U 21082AX  22090.91667824  .00031923  00000-0  27845-2 0  9991","DECAY_DATE":null,"CENTER_NAME":"EARTH","LAUNCH_DATE":"2021-09-14","MEAN_ELEMENT_THEORY":"SGP4","PERIOD":"96.211","GP_ID":"200155080","OBJECT_NAME":"STARLINK-3087","CLASSIFICATION_TYPE":"U","OBJECT_TYPE":"PAYLOAD","APOAPSIS":"579.187","MEAN_MOTION":"14.96713248","MEAN_MOTION_DOT":"0.00031923","REF_FRAME":"TEME","TIME_SYSTEM":"UTC","TLE_LINE2":"2 49175  69.9983 301.1673 0003055 282.6594 280.1257 14.96713248 30971"}];
